{"fetched_at":"2026-07-07T18:29:04.699Z","source":"https://celestrak.org/NORAD/elements/gp.php?GROUP=kuiper&FORMAT=JSON","constellation":"kuiper","records":[{"OBJECT_NAME":"KUIPER-00272","OBJECT_ID":"2026-072R","EPOCH":"2026-07-07T02:45:31.273056","CLASSIFICATION_TYPE":"U","MEAN_MOTION":14.79950792,"ECCENTRICITY":0.0001224,"INCLINATION":51.8956,"RA_OF_ASC_NODE":105.0104,"ARG_OF_PERICENTER":125.7107,"MEAN_ANOMALY":234.397,"EPHEMERIS_TYPE":0,"NORAD_CAT_ID":68588,"ELEMENT_SET_NO":999,"REV_AT_EPOCH":1410,"BSTAR":0.00045366,"MEAN_MOTION_DOT":0.0000324,"MEAN_MOTION_DDOT":0},{"OBJECT_NAME":"KUIPER-00285","OBJECT_ID":"2026-072S","EPOCH":"2026-07-07T10:00:05.000256","CLASSIFICATION_TYPE":"U","MEAN_MOTION":14.85408513,"ECCENTRICITY":0.0005289,"INCLINATION":51.9008,"RA_OF_ASC_NODE":83.8559,"ARG_OF_PERICENTER":81.3184,"MEAN_ANOMALY":282.8641,"EPHEMERIS_TYPE":0,"NORAD_CAT_ID":68589,"ELEMENT_SET_NO":999,"REV_AT_EPOCH":437,"BSTAR":-0.0072713,"MEAN_MOTION_DOT":-0.00062919,"MEAN_MOTION_DDOT":0},{"OBJECT_NAME":"KUIPER-00286","OBJECT_ID":"2026-072T","EPOCH":"2026-07-07T10:00:05.000256","CLASSIFICATION_TYPE":"U","MEAN_MOTION":14.98831756,"ECCENTRICITY":0.0006338,"INCLINATION":51.8895,"RA_OF_ASC_NODE":81.3459,"ARG_OF_PERICENTER":40.8758,"MEAN_ANOMALY":271.1563,"EPHEMERIS_TYPE":0,"NORAD_CAT_ID":68590,"ELEMENT_SET_NO":999,"REV_AT_EPOCH":539,"BSTAR":-0.0081309,"MEAN_MOTION_DOT":-0.00098099,"MEAN_MOTION_DDOT":0},{"OBJECT_NAME":"KUIPER-00289","OBJECT_ID":"2026-072U","EPOCH":"2026-07-07T03:08:51.117216","CLASSIFICATION_TYPE":"U","MEAN_MOTION":14.79934498,"ECCENTRICITY":0.0000686,"INCLINATION":51.8988,"RA_OF_ASC_NODE":89.9633,"ARG_OF_PERICENTER":116.622,"MEAN_ANOMALY":243.4813,"EPHEMERIS_TYPE":0,"NORAD_CAT_ID":68591,"ELEMENT_SET_NO":999,"REV_AT_EPOCH":1431,"BSTAR":0.0004033,"MEAN_MOTION_DOT":0.00002855,"MEAN_MOTION_DDOT":0},{"OBJECT_NAME":"KUIPER-00290","OBJECT_ID":"2026-072V","EPOCH":"2026-07-07T10:00:05.000256","CLASSIFICATION_TYPE":"U","MEAN_MOTION":14.83801333,"ECCENTRICITY":0.0009407,"INCLINATION":51.9008,"RA_OF_ASC_NODE":87.1442,"ARG_OF_PERICENTER":98.804,"MEAN_ANOMALY":240.2056,"EPHEMERIS_TYPE":0,"NORAD_CAT_ID":68592,"ELEMENT_SET_NO":999,"REV_AT_EPOCH":370,"BSTAR":-0.0037619,"MEAN_MOTION_DOT":-0.00031581,"MEAN_MOTION_DDOT":0},{"OBJECT_NAME":"KUIPER-00293","OBJECT_ID":"2026-072W","EPOCH":"2026-07-07T04:30:34.488288","CLASSIFICATION_TYPE":"U","MEAN_MOTION":14.79923557,"ECCENTRICITY":0.0002948,"INCLINATION":51.8973,"RA_OF_ASC_NODE":99.6975,"ARG_OF_PERICENTER":108.5708,"MEAN_ANOMALY":251.5574,"EPHEMERIS_TYPE":0,"NORAD_CAT_ID":68593,"ELEMENT_SET_NO":999,"REV_AT_EPOCH":1418,"BSTAR":0.000071975,"MEAN_MOTION_DOT":0.00000327,"MEAN_MOTION_DDOT":0},{"OBJECT_NAME":"KUIPER-00294","OBJECT_ID":"2026-072X","EPOCH":"2026-07-07T10:00:05.000256","CLASSIFICATION_TYPE":"U","MEAN_MOTION":14.81809162,"ECCENTRICITY":0.0001412,"INCLINATION":51.8977,"RA_OF_ASC_NODE":86.1654,"ARG_OF_PERICENTER":97.7165,"MEAN_ANOMALY":347.2481,"EPHEMERIS_TYPE":0,"NORAD_CAT_ID":68594,"ELEMENT_SET_NO":999,"REV_AT_EPOCH":527,"BSTAR":-0.0037943,"MEAN_MOTION_DOT":-0.00030341,"MEAN_MOTION_DDOT":0},{"OBJECT_NAME":"KUIPER-00296","OBJECT_ID":"2026-072Y","EPOCH":"2026-07-06T23:07:55.464096","CLASSIFICATION_TYPE":"U","MEAN_MOTION":15.38816181,"ECCENTRICITY":0.0009392,"INCLINATION":51.8697,"RA_OF_ASC_NODE":81.1988,"ARG_OF_PERICENTER":98.166,"MEAN_ANOMALY":262.0393,"EPHEMERIS_TYPE":0,"NORAD_CAT_ID":68595,"ELEMENT_SET_NO":999,"REV_AT_EPOCH":1442,"BSTAR":0.00060107,"MEAN_MOTION_DOT":0.00023142,"MEAN_MOTION_DDOT":0},{"OBJECT_NAME":"KUIPER-00297","OBJECT_ID":"2026-072Z","EPOCH":"2026-07-07T02:42:08.559648","CLASSIFICATION_TYPE":"U","MEAN_MOTION":14.76353816,"ECCENTRICITY":0.0001198,"INCLINATION":51.8992,"RA_OF_ASC_NODE":99.5895,"ARG_OF_PERICENTER":120.3694,"MEAN_ANOMALY":239.7385,"EPHEMERIS_TYPE":0,"NORAD_CAT_ID":68596,"ELEMENT_SET_NO":999,"REV_AT_EPOCH":1418,"BSTAR":0.00029476,"MEAN_MOTION_DOT":0.00001851,"MEAN_MOTION_DDOT":0},{"OBJECT_NAME":"KUIPER-00300","OBJECT_ID":"2026-072AA","EPOCH":"2026-07-07T02:31:20.886240","CLASSIFICATION_TYPE":"U","MEAN_MOTION":14.76469117,"ECCENTRICITY":0.0001954,"INCLINATION":51.9022,"RA_OF_ASC_NODE":96.6863,"ARG_OF_PERICENTER":113.4062,"MEAN_ANOMALY":246.7104,"EPHEMERIS_TYPE":0,"NORAD_CAT_ID":68597,"ELEMENT_SET_NO":999,"REV_AT_EPOCH":1422,"BSTAR":0.00028118,"MEAN_MOTION_DOT":0.00001761,"MEAN_MOTION_DDOT":0},{"OBJECT_NAME":"KUIPER-00301","OBJECT_ID":"2026-072AB","EPOCH":"2026-07-06T23:12:05.942016","CLASSIFICATION_TYPE":"U","MEAN_MOTION":15.38599628,"ECCENTRICITY":0.0009662,"INCLINATION":51.8656,"RA_OF_ASC_NODE":81.1735,"ARG_OF_PERICENTER":95.2704,"MEAN_ANOMALY":264.9385,"EPHEMERIS_TYPE":0,"NORAD_CAT_ID":68598,"ELEMENT_SET_NO":999,"REV_AT_EPOCH":1442,"BSTAR":0.00075249,"MEAN_MOTION_DOT":0.0002889,"MEAN_MOTION_DDOT":0},{"OBJECT_NAME":"KUIPER-00304","OBJECT_ID":"2026-072AC","EPOCH":"2026-07-07T02:37:45.216768","CLASSIFICATION_TYPE":"U","MEAN_MOTION":15.38409099,"ECCENTRICITY":0.0011545,"INCLINATION":51.8658,"RA_OF_ASC_NODE":80.641,"ARG_OF_PERICENTER":94.0772,"MEAN_ANOMALY":266.1535,"EPHEMERIS_TYPE":0,"NORAD_CAT_ID":68599,"ELEMENT_SET_NO":999,"REV_AT_EPOCH":1444,"BSTAR":0.00062133,"MEAN_MOTION_DOT":0.00023634,"MEAN_MOTION_DDOT":0},{"OBJECT_NAME":"KUIPER-00317","OBJECT_ID":"2026-072AD","EPOCH":"2026-07-07T10:00:05.000256","CLASSIFICATION_TYPE":"U","MEAN_MOTION":14.79888922,"ECCENTRICITY":0.0000495,"INCLINATION":51.8973,"RA_OF_ASC_NODE":86.2103,"ARG_OF_PERICENTER":79.3319,"MEAN_ANOMALY":168.626,"EPHEMERIS_TYPE":0,"NORAD_CAT_ID":68600,"ELEMENT_SET_NO":999,"REV_AT_EPOCH":493,"BSTAR":-0.0036898,"MEAN_MOTION_DOT":-0.00028202,"MEAN_MOTION_DDOT":0},{"OBJECT_NAME":"KUIPER-00320","OBJECT_ID":"2026-072AE","EPOCH":"2026-07-07T00:39:03.916224","CLASSIFICATION_TYPE":"U","MEAN_MOTION":14.79915902,"ECCENTRICITY":0.0000721,"INCLINATION":51.9017,"RA_OF_ASC_NODE":92.9201,"ARG_OF_PERICENTER":117.5882,"MEAN_ANOMALY":242.5153,"EPHEMERIS_TYPE":0,"NORAD_CAT_ID":68601,"ELEMENT_SET_NO":999,"REV_AT_EPOCH":1426,"BSTAR":-0.00042935,"MEAN_MOTION_DOT":-0.00003491,"MEAN_MOTION_DDOT":0},{"OBJECT_NAME":"KUIPER-00299","OBJECT_ID":"2026-095A","EPOCH":"2026-07-07T08:53:25.482912","CLASSIFICATION_TYPE":"U","MEAN_MOTION":14.76465551,"ECCENTRICITY":0.0001735,"INCLINATION":51.8984,"RA_OF_ASC_NODE":159.7859,"ARG_OF_PERICENTER":236.9787,"MEAN_ANOMALY":123.1007,"EPHEMERIS_TYPE":0,"NORAD_CAT_ID":68864,"ELEMENT_SET_NO":999,"REV_AT_EPOCH":1062,"BSTAR":0.00022384,"MEAN_MOTION_DOT":0.00001358,"MEAN_MOTION_DDOT":0},{"OBJECT_NAME":"KUIPER-00353","OBJECT_ID":"2026-095B","EPOCH":"2026-07-07T10:00:05.000256","CLASSIFICATION_TYPE":"U","MEAN_MOTION":14.98192889,"ECCENTRICITY":0.0003621,"INCLINATION":51.8977,"RA_OF_ASC_NODE":146.776,"ARG_OF_PERICENTER":356.671,"MEAN_ANOMALY":297.7154,"EPHEMERIS_TYPE":0,"NORAD_CAT_ID":68865,"ELEMENT_SET_NO":999,"REV_AT_EPOCH":542,"BSTAR":-0.0010005,"MEAN_MOTION_DOT":-0.00012244,"MEAN_MOTION_DDOT":0}]}
