KUIPER-00272            
1 68588U 26072R   26188.11494529  .00003240  00000+0  45366-3 0  9997
2 68588  51.8956 105.0104 0001224 125.7107 234.3970 14.79950792 14101
KUIPER-00285            
1 68589U 26072S   26188.41672454 -.00062919  00000+0 -72713-2 0  9991
2 68589  51.9008  83.8559 0005289  81.3184 282.8641 14.85408513  4372
KUIPER-00286            
1 68590U 26072T   26188.41672454 -.00098099  00000+0 -81309-2 0  9992
2 68590  51.8895  81.3459 0006338  40.8758 271.1563 14.98831756  5392
KUIPER-00289            
1 68591U 26072U   26188.13114719  .00002855  00000+0  40330-3 0  9990
2 68591  51.8988  89.9633 0000686 116.6220 243.4813 14.79934498 14318
KUIPER-00290            
1 68592U 26072V   26188.41672454 -.00031581  00000+0 -37619-2 0  9992
2 68592  51.9008  87.1442 0009407  98.8040 240.2056 14.83801333  3703
KUIPER-00293            
1 68593U 26072W   26188.18789917  .00000327  00000+0  71975-4 0  9997
2 68593  51.8973  99.6975 0002948 108.5708 251.5574 14.79923557 14188
KUIPER-00294            
1 68594U 26072X   26188.41672454 -.00030341  00000+0 -37943-2 0  9997
2 68594  51.8977  86.1654 0001412  97.7165 347.2481 14.81809162  5277
KUIPER-00296            
1 68595U 26072Y   26187.96383639  .00023142  00000+0  60107-3 0  9999
2 68595  51.8697  81.1988 0009392  98.1660 262.0393 15.38816181 14427
KUIPER-00297            
1 68596U 26072Z   26188.11259907  .00001851  00000+0  29476-3 0  9995
2 68596  51.8992  99.5895 0001198 120.3694 239.7385 14.76353816 14184
KUIPER-00300            
1 68597U 26072AA  26188.10510285  .00001761  00000+0  28118-3 0  9996
2 68597  51.9022  96.6863 0001954 113.4062 246.7104 14.76469117 14229
KUIPER-00301            
1 68598U 26072AB  26187.96673544  .00028890  00000+0  75249-3 0  9997
2 68598  51.8656  81.1735 0009662  95.2704 264.9385 15.38599628 14428
KUIPER-00304            
1 68599U 26072AC  26188.10955112  .00023634  00000+0  62133-3 0  9998
2 68599  51.8658  80.6410 0011545  94.0772 266.1535 15.38409099 14445
KUIPER-00317            
1 68600U 26072AD  26188.41672454 -.00028202  00000+0 -36898-2 0  9996
2 68600  51.8973  86.2103 0000495  79.3319 168.6260 14.79888922  4938
KUIPER-00320            
1 68601U 26072AE  26188.02712866 -.00003491  00000+0 -42935-3 0  9999
2 68601  51.9017  92.9201 0000721 117.5882 242.5153 14.79915902 14263
KUIPER-00299            
1 68864U 26095A   26188.37043383  .00001358  00000+0  22384-3 0  9998
2 68864  51.8984 159.7859 0001735 236.9787 123.1007 14.76465551 10628
KUIPER-00353            
1 68865U 26095B   26188.41672454 -.00012244  00000+0 -10005-2 0  9995
2 68865  51.8977 146.7760 0003621 356.6710 297.7154 14.98192889  5428
